[{"OBJECT_NAME":"LYNK TOWER 6","OBJECT_ID":"2024-043AB","EPOCH":"2026-03-09T21:28:38.303328","MEAN_MOTION":15.29548678,"ECCENTRICITY":0.00097492,"INCLINATION":97.5426,"RA_OF_ASC_NODE":204.1954,"ARG_OF_PERICENTER":232.0253,"MEAN_ANOMALY":128.0107,"EPHEMERIS_TYPE":0,"CLASSIFICATION_TYPE":"U","NORAD_CAT_ID":59123,"ELEMENT_SET_NO":999,"REV_AT_EPOCH":11184,"BSTAR":0.00040142146,"MEAN_MOTION_DOT":0.0001144,"MEAN_MOTION_DDOT":0},{"OBJECT_NAME":"STARLINK-32916","OBJECT_ID":"2025-027R","EPOCH":"2026-03-09T04:03:33.467904","MEAN_MOTION":15.27567346,"ECCENTRICITY":7.66e-5,"INCLINATION":43.0001,"RA_OF_ASC_NODE":131.7237,"ARG_OF_PERICENTER":232.1652,"MEAN_ANOMALY":127.913,"EPHEMERIS_TYPE":0,"CLASSIFICATION_TYPE":"U","NORAD_CAT_ID":62922,"ELEMENT_SET_NO":999,"REV_AT_EPOCH":6146,"BSTAR":0.001148007,"MEAN_MOTION_DOT":0.00031451,"MEAN_MOTION_DDOT":0}]
